[
  {
    "OBJECT_NAME": "STARLINK-30794",
    "OBJECT_ID": "23170N",
    "EPOCH": "2025-11-10T11:05:21.534720",
    "MEAN_MOTION": 15.02545438,
    "ECCENTRICITY": 2.65e-05,
    "INCLINATION": 42.9962,
    "RA_OF_ASC_NODE": 123.8276,
    "ARG_OF_PERICENTER": 59.6424,
    "MEAN_ANOMALY": 300.4445,
    "EPHEMERIS_TYPE": 0,
    "CLASSIFICATION_TYPE": "U",
    "NORAD_CAT_ID": 58218,
    "ELEMENT_SET_NO": 999,
    "REV_AT_EPOCH": 11234,
    "BSTAR": 2.0657000000000002e-05,
    "MEAN_MOTION_DOT": 7.6e-07,
    "MEAN_MOTION_DDOT": 0.0,
    "TLE_LINE1": "1 58218U 23170N   25314.46205480  .00000076  00000+0  20657-4 0  9997",
    "TLE_LINE2": "2 58218  42.9962 123.8276 0000265  59.6424 300.4445 15.02545438112348",
    "COMMENT": "Grouped by shell and plane from TLE"
  },
  {
    "OBJECT_NAME": "STARLINK-30835",
    "OBJECT_ID": "23170P",
    "EPOCH": "2025-11-10T21:37:06.914208",
    "MEAN_MOTION": 15.02539756,
    "ECCENTRICITY": 0.0001037,
    "INCLINATION": 43.0021,
    "RA_OF_ASC_NODE": 121.1184,
    "ARG_OF_PERICENTER": 269.7431,
    "MEAN_ANOMALY": 90.3292,
    "EPHEMERIS_TYPE": 0,
    "CLASSIFICATION_TYPE": "U",
    "NORAD_CAT_ID": 58219,
    "ELEMENT_SET_NO": 999,
    "REV_AT_EPOCH": 11241,
    "BSTAR": 0.00010504,
    "MEAN_MOTION_DOT": 1.216e-05,
    "MEAN_MOTION_DDOT": 0.0,
    "TLE_LINE1": "1 58219U 23170P   25314.90077447  .00001216  00000+0  10504-3 0  9993",
    "TLE_LINE2": "2 58219  43.0021 121.1184 0001037 269.7431  90.3292 15.02539756112415",
    "COMMENT": "Grouped by shell and plane from TLE"
  },
  {
    "OBJECT_NAME": "STARLINK-30855",
    "OBJECT_ID": "23170S",
    "EPOCH": "2025-11-11T03:31:25.595328",
    "MEAN_MOTION": 15.02535493,
    "ECCENTRICITY": 0.0001146,
    "INCLINATION": 43.0024,
    "RA_OF_ASC_NODE": 120.3634,
    "ARG_OF_PERICENTER": 263.6342,
    "MEAN_ANOMALY": 96.437,
    "EPHEMERIS_TYPE": 0,
    "CLASSIFICATION_TYPE": "U",
    "NORAD_CAT_ID": 58222,
    "ELEMENT_SET_NO": 999,
    "REV_AT_EPOCH": 11244,
    "BSTAR": 0.00010205,
    "MEAN_MOTION_DOT": 1.175e-05,
    "MEAN_MOTION_DDOT": 0.0,
    "TLE_LINE1": "1 58222U 23170S   25315.14682402  .00001175  00000+0  10205-3 0  9999",
    "TLE_LINE2": "2 58222  43.0024 120.3634 0001146 263.6342  96.4370 15.02535493112449",
    "COMMENT": "Grouped by shell and plane from TLE"
  },
  {
    "OBJECT_NAME": "STARLINK-30840",
    "OBJECT_ID": "23170T",
    "EPOCH": "2025-11-10T17:52:15.766752",
    "MEAN_MOTION": 15.02537968,
    "ECCENTRICITY": 0.0001007,
    "INCLINATION": 43.0021,
    "RA_OF_ASC_NODE": 122.5058,
    "ARG_OF_PERICENTER": 259.7525,
    "MEAN_ANOMALY": 100.3204,
    "EPHEMERIS_TYPE": 0,
    "CLASSIFICATION_TYPE": "U",
    "NORAD_CAT_ID": 58223,
    "ELEMENT_SET_NO": 999,
    "REV_AT_EPOCH": 11238,
    "BSTAR": 4.558900000000001e-05,
    "MEAN_MOTION_DOT": 4.12e-06,
    "MEAN_MOTION_DDOT": 0.0,
    "TLE_LINE1": "1 58223U 23170T   25314.74462693  .00000412  00000+0  45589-4 0  9990",
    "TLE_LINE2": "2 58223  43.0021 122.5058 0001007 259.7525 100.3204 15.02537968112389",
    "COMMENT": "Grouped by shell and plane from TLE"
  },
  {
    "OBJECT_NAME": "STARLINK-30874",
    "OBJECT_ID": "23170X",
    "EPOCH": "2025-11-11T03:45:48.215520",
    "MEAN_MOTION": 15.02540586,
    "ECCENTRICITY": 0.0001287,
    "INCLINATION": 43.0032,
    "RA_OF_ASC_NODE": 120.4411,
    "ARG_OF_PERICENTER": 265.7748,
    "MEAN_ANOMALY": 94.2947,
    "EPHEMERIS_TYPE": 0,
    "CLASSIFICATION_TYPE": "U",
    "NORAD_CAT_ID": 58227,
    "ELEMENT_SET_NO": 999,
    "REV_AT_EPOCH": 11244,
    "BSTAR": 0.00011879,
    "MEAN_MOTION_DOT": 1.402e-05,
    "MEAN_MOTION_DDOT": 0.0,
    "TLE_LINE1": "1 58227U 23170X   25315.15680805  .00001402  00000+0  11879-3 0  9991",
    "TLE_LINE2": "2 58227  43.0032 120.4411 0001287 265.7748  94.2947 15.02540586112441",
    "COMMENT": "Grouped by shell and plane from TLE"
  },
  {
    "OBJECT_NAME": "STARLINK-30871",
    "OBJECT_ID": "23170Y",
    "EPOCH": "2025-11-10T18:06:38.602944",
    "MEAN_MOTION": 15.02534633,
    "ECCENTRICITY": 0.0001287,
    "INCLINATION": 43.0032,
    "RA_OF_ASC_NODE": 122.5836,
    "ARG_OF_PERICENTER": 265.9984,
    "MEAN_ANOMALY": 94.0711,
    "EPHEMERIS_TYPE": 0,
    "CLASSIFICATION_TYPE": "U",
    "NORAD_CAT_ID": 58228,
    "ELEMENT_SET_NO": 999,
    "REV_AT_EPOCH": 11238,
    "BSTAR": 8.453800000000001e-05,
    "MEAN_MOTION_DOT": 9.38e-06,
    "MEAN_MOTION_DDOT": 0.0,
    "TLE_LINE1": "1 58228U 23170Y   25314.75461346  .00000938  00000+0  84538-4 0  9990",
    "TLE_LINE2": "2 58228  43.0032 122.5836 0001287 265.9984  94.0711 15.02534633112386",
    "COMMENT": "Grouped by shell and plane from TLE"
  }
]